FLOCK 4BE-30            
1 60499U 24149AH  26154.22675380  .00133304  00000+0  21053-2 0  9995
2 60499  97.3782 239.3119 0002042 228.7845 131.3232 15.53022279 99603
NUSAT-49 (KLARA DAN VO*)
1 60500U 24149AJ  26155.25045354  .00010305  00000+0  35427-3 0  9990
2 60500  97.3776 236.6282 0002184  33.0572 327.0805 15.30279554100159
FLOCK 4BE-11            
1 60501U 24149AK  26154.23736851  .00018948  00000+0  43869-3 0  9997
2 60501  97.3705 238.2358 0002454 340.6062  19.5091 15.42496654100206
YAM-7                   
1 60504U 24149AN  26155.12237863  .00008423  00000+0  27824-3 0  9998
2 60504  97.3782 235.4268 0002963  10.1957 349.9344 15.31631643100051
FLOCK 4BE-24            
1 60505U 24149AP  26154.80833286  .00021680  00000+0  50061-3 0  9993
2 60505  97.3717 239.0643 0002772 347.5290  12.5888 15.42549214100300
LUR-1                   
1 60506U 24149AQ  26155.09812995  .00008051  00000+0  28039-3 0  9997
2 60506  97.3739 234.0226 0004002  14.6350 345.5006 15.29927979 99978
TANAGER-1               
1 60507U 24149AR  26154.88145262  .00011564  00000+0  24806-3 0  9991
2 60507  97.2828 249.1210 0003837 357.1996   2.9230 15.44878007100984
EAGLEEYE                
1 60508U 24149AS  26155.03818950  .00091923  00000+0  80786-3 0  9997
2 60508  97.3728 247.6740 0002663 276.6116  83.4842 15.68509188100879
FLOCK 4BE-29            
1 60509U 24149AT  26154.18045210  .00018751  00000+0  41767-3 0  9998
2 60509  97.3812 239.8471 0002234  18.3317 341.8011 15.43656564100251
TRANSPORTER-11 OBJECT AU
1 60510U 24149AU  26155.25776778  .00016825  00000+0  42544-3 0  9993
2 60510  97.3730 238.8786 0002961 357.7909   2.3324 15.39849645100327
FLOCK 4BE-2             
1 60511U 24149AV  26155.03519527  .00058245  00000+0  98932-3 0  9991
2 60511  97.3831 241.9688 0002110 323.4896  36.6212 15.51274572100463
FLOCK 4BE-13            
1 60512U 24149AW  26155.04508464  .00015882  00000+0  38030-3 0  9994
2 60512  97.3720 239.3236 0002909 330.5983  29.5100 15.41518471100345
FLOCK 4BE-27            
1 60513U 24149AX  26154.95539132  .00010180  00000+0  30973-3 0  9994
2 60513  97.3825 236.8026 0003667  14.1325 346.0020 15.34204933100118
FLOCK 4BE-9             
1 60514U 24149AY  26155.03474973  .00017690  00000+0  43932-3 0  9998
2 60514  97.3790 239.1827 0002231  16.0745 344.0572 15.40392216100296
FLOCK 4BE-6             
1 60516U 24149BA  26155.11827776  .00015401  00000+0  39792-3 0  9999
2 60516  97.3788 238.6498 0002763   8.8648 351.2646 15.39209487100268
FLOCK 4BE-14            
1 60517U 24149BB  26154.46425474  .00018877  00000+0  46612-3 0  9995
2 60517  97.3697 238.1159 0003641   1.9742 358.1518 15.40548180100219
FLOCK 4BE-1             
1 60518U 24149BC  26155.01347731  .00020613  00000+0  48253-3 0  9991
2 60518  97.3779 239.9002 0003362 358.8581   1.2658 15.42146793100343
FLOCK 4BE-28            
1 60519U 24149BD  26155.04726356  .00019693  00000+0  42723-3 0  9991
2 60519  97.3746 240.6178 0003309 352.1802   7.9394 15.44427824100412
IPERDRONE.0             
1 60520U 24149BE  26154.24559931  .00077419  00000+0  79644-3 0  9999
2 60520  97.3781 246.7910 0002237 263.5446  96.5558 15.64625891100739
TRANSPORTER-11 OBJECT BF
1 60521U 24149BF  26154.21082029  .00204654  00000+0  11419-2 0  9994
2 60521  97.3774 249.1325 0004143 254.4467 105.6342 15.78829271100870
CONNECTA IOT-2          
1 60522U 24149BG  26154.52229389  .00005127  00000+0  21541-3 0  9993
2 60522  97.3839 232.8759 0006889  27.3779 332.7820 15.23853521 99815
PTD-R (TYVAK-0127)      
1 60523U 24149BH  26154.26107563  .00642488  18644-3  13002-2 0  9990
2 60523  97.3876 253.7884 0005833 270.1081  89.9528 15.99581707101200
CONNECTA IOT-4          
1 60524U 24149BJ  26155.09811965  .00022282  00000+0  52988-3 0  9995
2 60524  97.3796 239.3188 0004467 347.1728  12.9405 15.41650668100315
ORESAT0.5               
1 60525U 24149BK  26154.19160308  .00022224  00000+0  47997-3 0  9994
2 60525  97.3723 239.9838 0004447 340.1372  19.9703 15.44531443100310
DEIMOS                  
1 60526U 24149BL  26154.21619880  .00021123  00000+0  46923-3 0  9997
2 60526  97.3784 240.1556 0004554 348.5586  11.5558 15.43704684100298
CUAVA-2                 
1 60527U 24149BM  26155.24905835  .00013893  00000+0  40060-3 0  9991
2 60527  97.3724 236.7491 0005950 350.9189   9.1946 15.35810649100181
ERNST                   
1 60528U 24149BN  26155.03616519  .00015112  00000+0  39499-3 0  9997
2 60528  97.3807 238.6607 0005296 357.1854   2.9360 15.38849600100256
TORO                    
1 60530U 24149BQ  26155.13352284  .00002285  00000+0  20687-3 0  9993
2 60530  97.6778 230.0455 0001366  86.7526 273.3852 14.96370964 98005
HYPSO-2                 
1 60531U 24149BR  26155.18187425  .00002590  00000+0  22011-3 0  9994
2 60531  97.6836 231.6334 0002153  61.9102 298.2338 14.98737079 98106
LEMU NGE                
1 60532U 24149BS  26155.13296209  .00002624  00000+0  24580-3 0  9992
2 60532  97.6837 230.3567 0002402  82.1031 278.0462 14.94895650 98004
